NORAD_CAT_ID,OBJECT_NAME,OBJECT_TYPE,EPOCH,MEAN_MOTION,ECCENTRICITY,INCLINATION,RA_OF_ASC_NODE,ARG_OF_PERICENTER,MEAN_ANOMALY,BSTAR,MEAN_MOTION_DOT,MEAN_MOTION_DDOT,TLE_LINE0,TLE_LINE1,TLE_LINE2,SEMIMAJOR_AXIS,PERIOD,APOGEE,PERIGEE,DECAYED
52588.0,STARLINK-3917,PAYLOAD,2023-06-16 00:20:17,15.08840734,0.0001121,53.2166,277.861,98.4566,261.6553,3.9187e-05,3.36e-06,0.0,0 STARLINK-3917,1 52588U 22051BE  23167.01408877  .00000336  00000-0  39187-4 0  9996,2 52588  53.2166 277.8610 0001121  98.4566 261.6553 15.08840734 61046,6917.878,95.438,540.519,538.968,0.0
52588.0,STARLINK-3917,PAYLOAD,2023-06-16 08:17:12,15.08849082,0.0001031,53.2169,276.3744,93.787,266.324,8.902e-05,1.13e-05,0.0,0 STARLINK-3917,1 52588U 22051BE  23167.34528303  .00001130  00000-0  89020-4 0  9993,2 52588  53.2169 276.3744 0001031  93.7870 266.3240 15.08849082 61092,6917.853,95.437,540.431,539.004,0.0
52588.0,STARLINK-3917,PAYLOAD,2023-06-16 11:27:58,15.08855676,0.000109,53.2172,275.7786,95.8886,264.223,0.0001576,2.222e-05,0.0,0 STARLINK-3917,1 52588U 22051BE  23167.47775683  .00002222  00000-0  15760-3 0  9994,2 52588  53.2172 275.7786 0001090  95.8886 264.2230 15.08855676 61047,6917.832,95.437,540.452,538.943,0.0
52588.0,STARLINK-3917,PAYLOAD,2023-06-16 14:38:44,15.08859624,0.0001149,53.2165,275.1835,95.9213,264.191,0.00027604,4.11e-05,0.0,0 STARLINK-3917,1 52588U 22051BE  23167.61023664  .00004110  00000-0  27604-3 0  9993,2 52588  53.2165 275.1835 0001149  95.9213 264.1910 15.08859624 61139,6917.82,95.436,540.48,538.891,0.0
52588.0,STARLINK-3917,PAYLOAD,2023-06-16 16:14:07,15.0886414,0.0001122,53.2166,274.8862,91.0624,269.0496,0.00035276,5.334e-05,0.0,0 STARLINK-3917,1 52588U 22051BE  23167.67647439  .00005334  00000-0  35276-3 0  9994,2 52588  53.2166 274.8862 0001122  91.0624 269.0496 15.08864140 61075,6917.807,95.436,540.448,538.895,0.0
52588.0,STARLINK-3917,PAYLOAD,2023-06-17 00:11:03,15.08840502,0.0001151,53.2163,273.4003,100.0846,260.0276,6.9548e-05,8.19e-06,0.0,0 STARLINK-3917,1 52588U 22051BE  23168.00768509  .00000819  00000-0  69548-4 0  9997,2 52588  53.2163 273.4003 0001151 100.0846 260.0276 15.08840502 61199,6917.879,95.438,540.54,538.948,0.0
52588.0,STARLINK-3917,PAYLOAD,2023-06-17 08:08:00,15.08827009,0.0001344,53.2164,271.9126,98.082,262.0325,-0.0001343,-2.424e-05,0.0,0 STARLINK-3917,1 52588U 22051BE  23168.33889296 -.00002424  00000-0 -13430-3 0  9994,2 52588  53.2164 271.9126 0001344  98.0820 262.0325 15.08827009 61241,6917.92,95.438,540.715,538.855,0.0
52588.0,STARLINK-3917,PAYLOAD,2023-06-17 14:29:32,15.08828954,0.0001152,53.2161,270.7232,104.2965,255.8155,2.8872e-06,-2.42e-06,0.0,0 STARLINK-3917,1 52588U 22051BE  23168.60385004 -.00000242  00000-0  28872-5 0  9995,2 52588  53.2161 270.7232 0001152 104.2965 255.8155 15.08828954 61218,6917.914,95.438,540.576,538.982,0.0
52588.0,STARLINK-3917,PAYLOAD,2023-06-18 00:01:51,15.08832559,0.0001169,53.2164,268.9394,105.7471,254.365,0.00078294,0.00012192,0.0,0 STARLINK-3917,1 52588U 22051BE  23169.00129535  .00012192  00000-0  78294-3 0  9992,2 52588  53.2164 268.9394 0001169 105.7471 254.3650 15.08832559 61349,6917.903,95.438,540.577,538.959,0.0
52588.0,STARLINK-3917,PAYLOAD,2023-06-18 12:44:56,15.08852435,0.0001086,53.2158,266.5609,103.6897,256.4216,0.0012382,0.0001948,0.0,0 STARLINK-3917,1 52588U 22051BE  23169.53121472  .00019480  00000-0  12382-2 0  9994,2 52588  53.2158 266.5609 0001086 103.6897 256.4216 15.08852435 61359,6917.842,95.437,540.459,538.956,0.0
52588.0,STARLINK-3917,PAYLOAD,2023-06-19 12:35:43,15.08847617,0.0001018,53.2154,262.1,102.4267,257.6839,0.0003927,5.969e-05,0.0,0 STARLINK-3917,1 52588U 22051BE  23170.52481357  .00005969  00000-0  39270-3 0  9999,2 52588  53.2154 262.1000 0001018 102.4267 257.6839 15.08847617 61579,6917.857,95.437,540.426,539.018,0.0
52588.0,STARLINK-3917,PAYLOAD,2023-06-20 06:04:58,15.08842237,7.72e-05,53.2158,258.8315,72.0217,288.086,0.00023484,3.452e-05,0.0,0 STARLINK-3917,1 52588U 22051BE  23171.25345458  .00003452  00000-0  23484-3 0  9996,2 52588  53.2158 258.8315 0000772  72.0217 288.0860 15.08842237 61684,6917.874,95.437,540.273,539.204,0.0
52588.0,STARLINK-3917,PAYLOAD,2023-06-20 12:26:30,15.08848073,9.63e-05,53.2159,257.6391,96.9302,263.18,0.00022455,3.289e-05,0.0,0 STARLINK-3917,1 52588U 22051BE  23171.51841323  .00003289  00000-0  22455-3 0  9992,2 52588  53.2159 257.6391 0000963  96.9302 263.1800 15.08848073 61657,6917.856,95.437,540.387,539.055,0.0
52588.0,STARLINK-3917,PAYLOAD,2023-06-20 15:37:17,15.08846129,9.73e-05,53.2153,257.0453,93.1156,266.9948,0.00020159,2.923e-05,0.0,0 STARLINK-3917,1 52588U 22051BE  23171.65089270  .00002923  00000-0  20159-3 0  9995,2 52588  53.2153 257.0453 0000973  93.1156 266.9948 15.08846129 61677,6917.862,95.437,540.4,539.054,0.0
52588.0,STARLINK-3917,PAYLOAD,2023-06-21 12:17:17,15.08845983,9.43e-05,53.2154,253.1795,90.4532,269.6568,0.00012777,1.747e-05,0.0,0 STARLINK-3917,1 52588U 22051BE  23172.51201205  .00001747  00000-0  12777-3 0  9995,2 52588  53.2154 253.1795 0000943  90.4532 269.6568 15.08845983 61876,6917.862,95.437,540.379,539.075,0.0
52588.0,STARLINK-3917,PAYLOAD,2023-06-22 08:57:18,15.08839274,9.76e-05,53.215,249.3142,91.37,268.7403,3.7628e-05,3.11e-06,0.0,0 STARLINK-3917,1 52588U 22051BE  23173.37313472  .00000311  00000-0  37628-4 0  9999,2 52588  53.2150 249.3142 0000976  91.3700 268.7403 15.08839274 62008,6917.883,95.438,540.423,539.072,0.0
52588.0,STARLINK-3917,PAYLOAD,2023-06-23 11:58:52,15.08837456,0.0001043,53.2178,244.2604,99.6631,260.4479,7.5326e-05,9.11e-06,0.0,0 STARLINK-3917,1 52588U 22051BE  23174.49921842  .00000911  00000-0  75326-4 0  9992,2 52588  53.2178 244.2604 0001043  99.6631 260.4479 15.08837456 62175,6917.888,95.438,540.475,539.032,0.0
52588.0,STARLINK-3917,PAYLOAD,2023-06-24 08:38:53,15.08829014,9.84e-05,53.2176,240.3951,111.3178,248.7919,0.00012783,1.747e-05,0.0,0 STARLINK-3917,1 52588U 22051BE  23175.36034444  .00001747  00000-0  12783-3 0  9997,2 52588  53.2176 240.3951 0000984 111.3178 248.7919 15.08829014 62300,6917.914,95.438,540.46,539.098,0.0
52588.0,STARLINK-3917,PAYLOAD,2023-06-24 11:49:39,15.08836347,0.0001128,53.2174,239.7999,99.9154,260.1965,0.00012458,1.695e-05,0.0,0 STARLINK-3917,1 52588U 22051BE  23175.49281998  .00001695  00000-0  12458-3 0  9990,2 52588  53.2174 239.7999 0001128  99.9154 260.1965 15.08836347 62326,6917.892,95.438,540.537,538.976,0.0
52588.0,STARLINK-3917,PAYLOAD,2023-06-25 13:15:49,15.08848144,0.0001049,53.2161,235.0411,83.9383,276.1729,0.00015696,2.212e-05,0.0,0 STARLINK-3917,1 52588U 22051BE  23176.55265284  .00002212  00000-0  15696-3 0  9991,2 52588  53.2161 235.0411 0001049  83.9383 276.1729 15.08848144 62489,6917.855,95.437,540.446,538.995,0.0
52588.0,STARLINK-3917,PAYLOAD,2023-06-25 21:12:45,15.08841404,0.0001075,53.2148,233.5537,81.767,278.3444,9.6522e-05,1.249e-05,0.0,0 STARLINK-3917,1 52588U 22051BE  23176.88385747  .00001249  00000-0  96522-4 0  9991,2 52588  53.2148 233.5537 0001075  81.7670 278.3444 15.08841404 62536,6917.876,95.437,540.485,538.997,0.0
52588.0,STARLINK-3917,PAYLOAD,2023-06-27 09:46:37,15.08839992,0.0001057,53.2159,226.7144,87.687,272.4243,4.712e-05,4.62e-06,0.0,0 STARLINK-3917,1 52588U 22051BE  23178.40738028  .00000462  00000-0  47120-4 0  9991,2 52588  53.2159 226.7144 0001057  87.6870 272.4243 15.08839992 62769,6917.88,95.438,540.477,539.014,0.0
52588.0,STARLINK-3917,PAYLOAD,2023-06-28 14:23:34,15.08840437,0.0001096,53.2159,221.3614,89.5875,270.5243,6.6501e-05,7.71e-06,0.0,0 STARLINK-3917,1 52588U 22051BE  23179.59969910  .00000771  00000-0  66501-4 0  9995,2 52588  53.2159 221.3614 0001096  89.5875 270.5243 15.08840437 62946,6917.879,95.438,540.502,538.986,0.0
52588.0,STARLINK-3917,PAYLOAD,2023-06-30 18:51:18,15.08834242,0.000106,53.2161,211.5485,88.2412,271.8701,2.4565e-05,1.03e-06,0.0,0 STARLINK-3917,1 52588U 22051BE  23181.78562656  .00000103  00000-0  24565-4 0  9998,2 52588  53.2161 211.5485 0001060  88.2412 271.8701 15.08834242 63277,6917.898,95.438,540.496,539.03,0.0
52588.0,STARLINK-3917,PAYLOAD,2023-07-02 09:00:33,15.08839962,9.84e-05,53.216,204.4114,87.8171,272.2933,4.6048e-05,4.45e-06,0.0,0 STARLINK-3917,1 52588U 22051BE  23183.37538536  .00000445  00000-0  46048-4 0  9994,2 52588  53.2160 204.4114 0000984  87.8171 272.2933 15.08839962 63510,6917.881,95.438,540.426,539.065,0.0
52588.0,STARLINK-3917,PAYLOAD,2023-07-03 10:26:43,15.08841089,9.71e-05,53.2161,199.6531,86.9709,273.1394,7.5828e-05,9.19e-06,0.0,0 STARLINK-3917,1 52588U 22051BE  23184.43522426  .00000919  00000-0  75828-4 0  9997,2 52588  53.2161 199.6531 0000971  86.9709 273.1394 15.08841089 63673,6917.877,95.437,540.414,539.07,0.0
52588.0,STARLINK-3917,PAYLOAD,2023-07-04 18:14:26,15.08841668,9.9e-05,53.2161,193.7059,85.1026,275.0079,3.1474e-05,2.13e-06,0.0,0 STARLINK-3917,1 52588U 22051BE  23185.76002388  .00000213  00000-0  31474-4 0  9990,2 52588  53.2161 193.7059 0000990  85.1026 275.0079 15.08841668 63873,6917.875,95.437,540.425,539.055,0.0
52588.0,STARLINK-3917,PAYLOAD,2023-07-06 02:02:09,15.08835803,9.8e-05,53.2157,187.7588,84.6427,275.4677,-7.9125e-06,-4.14e-06,0.0,0 STARLINK-3917,1 52588U 22051BE  23187.08482847 -.00000414  00000-0 -79125-5 0  9990,2 52588  53.2157 187.7588 0000980  84.6427 275.4677 15.08835803 64071,6917.893,95.438,540.436,539.08,0.0
52588.0,STARLINK-3917,PAYLOAD,2023-07-07 03:28:19,15.08839568,0.0001004,53.2156,183.0009,84.0316,276.0791,4.3159e-05,3.99e-06,0.0,0 STARLINK-3917,1 52588U 22051BE  23188.14466631  .00000399  00000-0  43159-4 0  9998,2 52588  53.2156 183.0009 0001004  84.0316 276.0791 15.08839568 64230,6917.882,95.438,540.441,539.052,0.0
52588.0,STARLINK-3917,PAYLOAD,2023-07-08 06:29:52,15.08836142,0.0001043,53.2154,177.9455,82.8559,277.2552,4.7847e-05,4.74e-06,0.0,0 STARLINK-3917,1 52588U 22051BE  23189.27075057  .00000474  00000-0  47847-4 0  9993,2 52588  53.2154 177.9455 0001043  82.8559 277.2552 15.08836142 64405,6917.892,95.438,540.479,539.036,0.0
